STARLINK-32405          
1 61636U 24191R   26068.24252237 -.00001069  00000+0 -29301-4 0  9994
2 61636  43.0024 160.8737 0003398 286.9855  73.0624 15.27567531 77429
TEVEL2-8                
1 63239U 25052AF  26068.66815442  .00019130  00000+0  69304-3 0  9993
2 63239  97.4055 324.2923 0008031 124.9191 235.2804 15.28392908 54807
